SARSAT 7 (NOAA 15)      
1 25338U 98030A   23186.32551328  .00000222  00000+0  11061-3 0  9997
2 25338  98.6045 215.0712 0009149 259.4750 100.5399 14.26346333307842
GPS BIIR-08             
1 27663U 03005A   23186.17548176  .00000024  00000+0  00000+0 0  9995
2 27663  55.2752 257.8458 0131236  44.5858 314.7697  2.00569458149685
GPS BIIR-11             
1 28190U 04009A   23184.46620505 -.00000059  00000+0  00000+0 0  9992
2 28190  55.7412 318.9658 0093082 135.2497 226.4409  2.00568861141323
GPS BIIR-13             
1 28474U 04045A   23186.16687642 -.00000076  00000+0  00000+0 0  9990
2 28474  55.4385   8.1381 0161229 281.1126 281.7100  2.00577698136801
SARSAT 10 (NOAA 18)     
1 28654U 05018A   23186.47758871  .00000219  00000+0  14120-3 0  9998
2 28654  98.9094 260.7794 0013561 332.1478  27.8966 14.12964091934152
GPS BIIR-14M            
1 28874U 05038A   23185.12209204 -.00000057  00000+0  00000+0 0  9995
2 28874  55.7934 316.3899 0137365 279.3032 215.7084  2.00550177130181
METEOSAT-9 (MSG-2)      
1 28912U 05049B   23186.21803431  .00000123  00000+0  00000+0 0  9996
2 28912   6.8865  63.6411 0001672 158.7639 184.7133  1.00271610 64266
GOES 13                 
1 29155U 06018A   23172.81756907  .00000043  00000+0  00000+0 0  9990
2 29155   1.5416  91.7221 0002821  86.8158  86.8398  1.00274805 32433
GPS BIIR-16M            
1 29601U 06052A   23184.49241731  .00000040  00000+0  00000+0 0  9992
2 29601  55.2951 256.8685 0084835  78.9481 282.0897  2.00574236121797
GPS BIIR-17M            
1 32260U 07047A   23185.29908721  .00000009  00000+0  00000+0 0  9995
2 32260  53.4423 124.7137 0148646  69.0775 292.4738  2.00554618115197
GPS BIIR-18M            
1 32384U 07062A   23186.36977362 -.00000059  00000+0  00000+0 0  9991
2 32384  55.9227 317.1526 0024750 145.0283  37.8143  2.00555432113959
SARSAT 12 (NOAA 19)     
1 33591U 09005A   23186.38274164  .00000188  00000+0  12581-3 0  9996
2 33591  99.0983 232.5994 0013785 187.5440 172.5526 14.12781091742519
GOES 14                 
1 35491U 09033A   23185.50904503 -.00000062  00000+0  00000+0 0  9999
2 35491   0.3762 103.9583 0005883 337.0578 275.8687  1.00271473 51349
GOES 15                 
1 36411U 10008A   23185.62960779  .00000059  00000+0  00000+0 0  9991
2 36411   0.3996  95.6173 0001251  44.7087 196.7575  0.99983020 48837
GPS BIIF-2              
1 37753U 11036A   23184.68494387 -.00000065  00000+0  00000+0 0  9993
2 37753  56.7319  13.8936 0127312  55.5645 139.4824  2.00567913 87610
GSAT0101 (GALILEO-PFM)  
1 37846U 11060A   23185.11887789 -.00000070  00000+0  00000+0 0  9990
2 37846  57.0993  10.9807 0003629  56.2512 303.8147  1.70475874 72850
GSAT0102 (GALILEO-FM2)  
1 37847U 11060B   23185.35648260 -.00000071  00000+0  00000+0 0  9997
2 37847  57.1002  10.9742 0002916  20.7003 171.5972  1.70475248 72851
LUCH 5A                 
1 37951U 11074B   23185.57463265 -.00000049  00000+0  00000+0 0  9997
2 37951   5.9879  90.7638 0005685  17.4333 188.0918  1.00267948 42371
METEOSAT-10 (MSG-3)     
1 38552U 12035B   23186.35199199 -.00000012  00000+0  00000+0 0  9992
2 38552   2.2106  56.1479 0000760  19.3245 333.8409  1.00270095 40407
SARSAT 13 (METOP-B)     
1 38771U 12049A   23186.42206019  .00000125  00000+0  76799-4 0  9995
2 38771  98.6776 245.4913 0001076  83.0471 101.4976 14.21506551560139
GPS BIIF-3              
1 38833U 12053A   23184.39771302  .00000085  00000+0  00000+0 0  9997
2 38833  53.5149 187.7641 0138309  50.9280 310.3176  2.00566161 78672
GSAT0103 (GALILEO-FM3)  
1 38857U 12055A   23184.57112037  .00000018  00000+0  00000+0 0  9995
2 38857  55.2629 131.2193 0004962 274.3962  85.4960  1.70473565 66749
GSAT0104 (GALILEO-FM4)  
1 38858U 12055B   23185.71384453  .00000016  00000+0  00000+0 0  9994
2 38858  55.2632 131.1894 0002388 279.1740  80.7514  1.70473808 66730
GPS BIIF-4              
1 39166U 13023A   23184.25845419 -.00000054  00000+0  00000+0 0  9998
2 39166  55.4100 312.6452 0114132  41.7188 319.1450  2.00564364 74213
INSAT-3D                
1 39216U 13038B   23186.36855331 -.00000157  00000+0  00000+0 0  9992
2 39216   0.1046 272.1664 0000829 208.7192  16.9838  1.00274920 36492
GPS BIIF-5              
1 39533U 14008A   23186.24890306  .00000071  00000+0  00000+0 0  9994
2 39533  53.6025 193.2381 0067033 214.6298 144.9535  2.00574755 68611
LUCH 5V                 
1 39727U 14023A   23186.01983240 -.00000268  00000+0  00000+0 0  9990
2 39727   2.4248  77.5022 0002929  64.6964 242.3854  1.00267032551695
GPS BIIF-6              
1 39741U 14026A   23184.03815995 -.00000063  00000+0  00000+0 0  9993
2 39741  56.6857  13.4414 0028617 313.7359  46.0670  2.00561662 66862
GPS BIIF-7              
1 40105U 14045A   23184.12767221  .00000017  00000+0  00000+0 0  9996
2 40105  54.7953 131.5986 0022374 113.2376 246.9602  2.00573324 65308
GSAT0201 (GALILEO 5)    
1 40128U 14050A   23186.43654050 -.00000080  00000+0  00000+0 0  9999
2 40128  49.9910 317.0024 1611329 138.0486 235.5158  1.85518933 60265
GSAT0202 (GALILEO 6)    
1 40129U 14050B   23185.07916347 -.00000077  00000+0  00000+0 0  9995
2 40129  50.0123 316.1268 1609079 138.8086 234.5524  1.85519557 60436
GPS BIIF-8              
1 40294U 14068A   23183.50559348 -.00000039  00000+0  00000+0 0  9995
2 40294  56.1216  72.9656 0047867  59.0520 301.4673  2.00567419 63513
GLONASS-K 2             
1 40315U 14075A   23185.94283847  .00000074  00000+0  00000+0 0  9993
2 40315  63.6423 227.8023 0020079 210.9689 148.9992  2.13101419 66877
GPS BIIF-9              
1 40534U 15013A   23186.13127548  .00000035  00000+0  00000+0 0  9993
2 40534  53.4896 248.8295 0078431  25.0185 335.4498  2.00558397 60624
GSAT0203 (GALILEO 7)    
1 40544U 15017A   23185.48501085 -.00000072  00000+0  00000+0 0  9999
2 40544  56.8950  10.9523 0001049 232.1894 127.8309  1.70475840 51478
GSAT0204 (GALILEO 8)    
1 40545U 15017B   23184.56531908 -.00000069  00000+0  00000+0 0  9991
2 40545  56.9006  10.9911 0001502 188.8078 171.2231  1.70475459 51460
GPS BIIF-10             
1 40730U 15033A   23184.79657465 -.00000052  00000+0  00000+0 0  9999
2 40730  54.8992 311.2683 0084225  14.1231 346.1132  2.00558426 58364
METEOSAT-11 (MSG-4)     
1 40732U 15034A   23186.28240365  .00000063  00000+0  00000+0 0  9996
2 40732   0.6229  44.9147 0000513  42.3192 306.6989  1.00275904 29208
GSAT0205 (GALILEO 9)    
1 40889U 15045A   23177.29425267  .00000014  00000+0  00000+0 0  9994
2 40889  55.3973 251.6340 0003196  16.5767 343.5057  1.70474025 48486
GSAT0206 (GALILEO 10)   
1 40890U 15045B   23185.14059025  .00000040  00000+0  00000+0 0  9993
2 40890  55.3922 251.4127 0002883 296.5640  63.5066  1.70473499 48646
GPS BIIF-11             
1 41019U 15062A   23185.34937224 -.00000035  00000+0  00000+0 0  9999
2 41019  56.1073  72.7422 0087088 221.4946 137.8968  2.00562186 56195
ELEKTRO-L 2             
1 41105U 15074A   23185.38174265 -.00000116  00000+0  00000+0 0  9990
2 41105   3.9516  83.6521 0001571  80.5830 240.8081  1.00270265 27690
GSAT0209 (GALILEO 12)   
1 41174U 15079A   23185.31206794  .00000016  00000+0  00000+0 0  9995
2 41174  55.2807 130.9054 0004867 312.3046  47.6052  1.70473946 46962
GSAT0208 (GALILEO 11)   
1 41175U 15079B   23183.18531296  .00000023  00000+0  00000+0 0  9995
2 41175  55.2783 130.9620 0004235 310.7874  49.1250  1.70473956 46929
GPS BIIF-12             
1 41328U 16007A   23184.44240788  .00000018  00000+0  00000+0 0  9994
2 41328  55.0018 132.3492 0071442 235.0119 124.2790  2.00552895 54226
GSAT0211 (GALILEO 14)   
1 41549U 16030A   23185.65284617  .00000038  00000+0  00000+0 0  9990
2 41549  55.5393 251.3721 0003044 309.6835  50.3891  1.70473908 44262
GSAT0210 (GALILEO 13)   
1 41550U 16030B   23184.18464716  .00000043  00000+0  00000+0 0  9995
2 41550  55.5398 251.4139 0003740 267.3205  92.7363  1.70473820 44231
INSAT-3DR               
1 41752U 16054A   23186.36698434 -.00000077  00000+0  00000+0 0  9991
2 41752   0.0627  93.6212 0010309 174.7215 220.8592  1.00271090 24991
GSAT0207 (GALILEO 15)   
1 41859U 16069A   23186.19254906  .00000015  00000+0  00000+0 0  9999
2 41859  54.9434 130.9681 0005072 299.6873  60.2169  1.70473811 41241
GSAT0212 (GALILEO 16)   
1 41860U 16069B   23186.04727501  .00000015  00000+0  00000+0 0  9991
2 41860  54.9413 130.9691 0003848 320.3391  39.5867  1.70474135 41274
GSAT0213 (GALILEO 17)   
1 41861U 16069C   23185.23969700  .00000016  00000+0  00000+0 0  9992
2 41861  54.9430 130.9973 0004946 280.9924  78.9027  1.70472774 41250
GSAT0214 (GALILEO 18)   
1 41862U 16069D   23185.97347266  .00000015  00000+0  00000+0 0  9990
2 41862  54.9415 130.9710 0003977 286.2127  73.6972  1.70472614 41265
GOES 16                 
1 41866U 16071A   23185.47719677 -.00000245  00000+0  00000+0 0  9997
2 41866   0.0197 202.1675 0000558 272.1560 264.4918  1.00271333 24288
GSAT-17                 
1 42815U 17040B   23186.04146352 -.00000257  00000+0  00000+0 0  9990
2 42815   0.0685  97.7948 0001664 178.7436 114.6465  1.00271142 22063
GSAT0215 (GALILEO 19)   
1 43055U 17079A   23186.46304799  .00000032  00000+0  00000+0 0  9996
2 43055  55.5151 251.1766 0003010 260.2307  99.8321  1.70474519 34617
GSAT0216 (GALILEO 20)   
1 43056U 17079B   23183.23551985  .00000043  00000+0  00000+0 0  9992
2 43056  55.5173 251.2656 0004444 268.9883  91.0575  1.70474743 34554
GSAT0217 (GALILEO 21)   
1 43057U 17079C   23185.80218597  .00000037  00000+0  00000+0 0  9990
2 43057  55.5139 251.1939 0003663 282.3311  77.7271  1.70474669 34605
GSAT0218 (GALILEO 22)   
1 43058U 17079D   23184.84907281  .00000042  00000+0  00000+0 0  9995
2 43058  55.5144 251.2177 0004956 266.6764  93.3674  1.70474566 34584
GOES 17                 
1 43226U 18022A   23185.97308360 -.00000089  00000+0  00000+0 0  9991
2 43226   0.0089 262.8705 0002469 205.8706  59.5532  1.00271036 19622
GSAT0221 (GALILEO 25)   
1 43564U 18060A   23183.57535540 -.00000065  00000+0  00000+0 0  9998
2 43564  57.2753  10.9162 0001485 298.7019  61.3203  1.70475666 30758
